[{"OBJECT_NAME":"STARLINK-31134","OBJECT_ID":"2023-203D","EPOCH":"2026-03-02T05:13:35.693472","MEAN_MOTION":15.2756848,"ECCENTRICITY":0.00010452,"INCLINATION":42.9986,"RA_OF_ASC_NODE":109.7169,"ARG_OF_PERICENTER":282.1644,"MEAN_ANOMALY":77.909,"EPHEMERIS_TYPE":0,"CLASSIFICATION_TYPE":"U","NORAD_CAT_ID":58621,"ELEMENT_SET_NO":999,"REV_AT_EPOCH":12241,"BSTAR":-2.3741881e-5,"MEAN_MOTION_DOT":-9.15e-6,"MEAN_MOTION_DDOT":0},{"OBJECT_NAME":"STARLINK-31133","OBJECT_ID":"2023-203E","EPOCH":"2026-03-02T04:36:34.014240","MEAN_MOTION":15.27580454,"ECCENTRICITY":0.00014737,"INCLINATION":43.0025,"RA_OF_ASC_NODE":109.5261,"ARG_OF_PERICENTER":193.8846,"MEAN_ANOMALY":166.1965,"EPHEMERIS_TYPE":0,"CLASSIFICATION_TYPE":"U","NORAD_CAT_ID":58622,"ELEMENT_SET_NO":999,"REV_AT_EPOCH":12241,"BSTAR":4.6755547e-5,"MEAN_MOTION_DOT":1.025e-5,"MEAN_MOTION_DDOT":0},{"OBJECT_NAME":"STARLINK-31068","OBJECT_ID":"2023-203F","EPOCH":"2026-03-02T04:31:01.759584","MEAN_MOTION":15.27557906,"ECCENTRICITY":0.00011742,"INCLINATION":43.0034,"RA_OF_ASC_NODE":109.4977,"ARG_OF_PERICENTER":259.8432,"MEAN_ANOMALY":100.2288,"EPHEMERIS_TYPE":0,"CLASSIFICATION_TYPE":"U","NORAD_CAT_ID":58623,"ELEMENT_SET_NO":999,"REV_AT_EPOCH":12241,"BSTAR":0.0001859583,"MEAN_MOTION_DOT":4.855e-5,"MEAN_MOTION_DDOT":0},{"OBJECT_NAME":"STARLINK-31129","OBJECT_ID":"2023-203G","EPOCH":"2026-03-02T12:18:06.170688","MEAN_MOTION":15.27666952,"ECCENTRICITY":0.00016644,"INCLINATION":43.0027,"RA_OF_ASC_NODE":107.6306,"ARG_OF_PERICENTER":170.1246,"MEAN_ANOMALY":189.9639,"EPHEMERIS_TYPE":0,"CLASSIFICATION_TYPE":"U","NORAD_CAT_ID":58624,"ELEMENT_SET_NO":999,"REV_AT_EPOCH":12246,"BSTAR":0.00078419566,"MEAN_MOTION_DOT":0.00021437,"MEAN_MOTION_DDOT":0},{"OBJECT_NAME":"STARLINK-30774","OBJECT_ID":"2023-203H","EPOCH":"2026-03-02T04:21:46.187712","MEAN_MOTION":15.27580576,"ECCENTRICITY":8.94e-5,"INCLINATION":43.0007,"RA_OF_ASC_NODE":109.4463,"ARG_OF_PERICENTER":240.6886,"MEAN_ANOMALY":119.3876,"EPHEMERIS_TYPE":0,"CLASSIFICATION_TYPE":"U","NORAD_CAT_ID":58625,"ELEMENT_SET_NO":999,"REV_AT_EPOCH":12241,"BSTAR":4.5931187e-5,"MEAN_MOTION_DOT":1.002e-5,"MEAN_MOTION_DDOT":0},{"OBJECT_NAME":"STARLINK-31086","OBJECT_ID":"2023-203J","EPOCH":"2026-03-02T10:01:24.028608","MEAN_MOTION":15.27570451,"ECCENTRICITY":0.00012856,"INCLINATION":43.0006,"RA_OF_ASC_NODE":107.7789,"ARG_OF_PERICENTER":274.4956,"MEAN_ANOMALY":85.5749,"EPHEMERIS_TYPE":0,"CLASSIFICATION_TYPE":"U","NORAD_CAT_ID":58626,"ELEMENT_SET_NO":999,"REV_AT_EPOCH":12245,"BSTAR":-2.0535511e-5,"MEAN_MOTION_DOT":-8.27e-6,"MEAN_MOTION_DDOT":0},{"OBJECT_NAME":"STARLINK-31065","OBJECT_ID":"2023-203K","EPOCH":"2026-03-02T04:01:25.346208","MEAN_MOTION":15.27583302,"ECCENTRICITY":4.902e-5,"INCLINATION":42.9999,"RA_OF_ASC_NODE":109.3559,"ARG_OF_PERICENTER":289.3795,"MEAN_ANOMALY":70.7004,"EPHEMERIS_TYPE":0,"CLASSIFICATION_TYPE":"U","NORAD_CAT_ID":58627,"ELEMENT_SET_NO":999,"REV_AT_EPOCH":12241,"BSTAR":-3.311621e-5,"MEAN_MOTION_DOT":-1.173e-5,"MEAN_MOTION_DDOT":0},{"OBJECT_NAME":"STARLINK-31092","OBJECT_ID":"2023-203L","EPOCH":"2026-03-02T04:16:14.343456","MEAN_MOTION":15.27574148,"ECCENTRICITY":0.00014488,"INCLINATION":43.0065,"RA_OF_ASC_NODE":109.4236,"ARG_OF_PERICENTER":288.5727,"MEAN_ANOMALY":71.4968,"EPHEMERIS_TYPE":0,"CLASSIFICATION_TYPE":"U","NORAD_CAT_ID":58628,"ELEMENT_SET_NO":999,"REV_AT_EPOCH":12241,"BSTAR":4.3279769e-5,"MEAN_MOTION_DOT":9.29e-6,"MEAN_MOTION_DDOT":0},{"OBJECT_NAME":"STARLINK-31091","OBJECT_ID":"2023-203M","EPOCH":"2026-03-02T04:48:49.426848","MEAN_MOTION":15.27574973,"ECCENTRICITY":0.00012516,"INCLINATION":43.0021,"RA_OF_ASC_NODE":113.0262,"ARG_OF_PERICENTER":241.2172,"MEAN_ANOMALY":118.8555,"EPHEMERIS_TYPE":0,"CLASSIFICATION_TYPE":"U","NORAD_CAT_ID":58629,"ELEMENT_SET_NO":999,"REV_AT_EPOCH":12237,"BSTAR":4.5860046e-5,"MEAN_MOTION_DOT":1.0e-5,"MEAN_MOTION_DDOT":0},{"OBJECT_NAME":"STARLINK-31084","OBJECT_ID":"2023-203N","EPOCH":"2026-03-02T04:43:16.165632","MEAN_MOTION":15.27578279,"ECCENTRICITY":0.00010457,"INCLINATION":43.0025,"RA_OF_ASC_NODE":112.9968,"ARG_OF_PERICENTER":228.5644,"MEAN_ANOMALY":131.5118,"EPHEMERIS_TYPE":0,"CLASSIFICATION_TYPE":"U","NORAD_CAT_ID":58630,"ELEMENT_SET_NO":999,"REV_AT_EPOCH":12237,"BSTAR":5.6673326e-5,"MEAN_MOTION_DOT":1.298e-5,"MEAN_MOTION_DDOT":0},{"OBJECT_NAME":"STARLINK-31064","OBJECT_ID":"2023-203P","EPOCH":"2026-03-02T05:05:28.844160","MEAN_MOTION":15.27577078,"ECCENTRICITY":0.00016565,"INCLINATION":43.0051,"RA_OF_ASC_NODE":113.1153,"ARG_OF_PERICENTER":283.0576,"MEAN_ANOMALY":77.0091,"EPHEMERIS_TYPE":0,"CLASSIFICATION_TYPE":"U","NORAD_CAT_ID":58631,"ELEMENT_SET_NO":999,"REV_AT_EPOCH":12354,"BSTAR":4.0387068e-5,"MEAN_MOTION_DOT":8.49e-6,"MEAN_MOTION_DDOT":0},{"OBJECT_NAME":"STARLINK-31081","OBJECT_ID":"2023-203Q","EPOCH":"2026-03-02T04:30:19.185984","MEAN_MOTION":15.27585368,"ECCENTRICITY":3.631e-5,"INCLINATION":42.9976,"RA_OF_ASC_NODE":112.9277,"ARG_OF_PERICENTER":284.7314,"MEAN_ANOMALY":75.3498,"EPHEMERIS_TYPE":0,"CLASSIFICATION_TYPE":"U","NORAD_CAT_ID":58632,"ELEMENT_SET_NO":999,"REV_AT_EPOCH":12360,"BSTAR":-4.0584899e-5,"MEAN_MOTION_DOT":-1.378e-5,"MEAN_MOTION_DDOT":0},{"OBJECT_NAME":"STARLINK-31022","OBJECT_ID":"2023-203R","EPOCH":"2026-03-02T09:59:02.918400","MEAN_MOTION":15.27559504,"ECCENTRICITY":0.00017322,"INCLINATION":42.9996,"RA_OF_ASC_NODE":112.06,"ARG_OF_PERICENTER":292.4664,"MEAN_ANOMALY":67.6004,"EPHEMERIS_TYPE":0,"CLASSIFICATION_TYPE":"U","NORAD_CAT_ID":58633,"ELEMENT_SET_NO":999,"REV_AT_EPOCH":12363,"BSTAR":0.00011838953,"MEAN_MOTION_DOT":2.995e-5,"MEAN_MOTION_DDOT":0},{"OBJECT_NAME":"STARLINK-31025","OBJECT_ID":"2023-203S","EPOCH":"2026-03-02T13:17:05.005824","MEAN_MOTION":15.27584116,"ECCENTRICITY":0.0001134,"INCLINATION":43.0006,"RA_OF_ASC_NODE":107.0008,"ARG_OF_PERICENTER":266.9763,"MEAN_ANOMALY":93.0959,"EPHEMERIS_TYPE":0,"CLASSIFICATION_TYPE":"U","NORAD_CAT_ID":58634,"ELEMENT_SET_NO":999,"REV_AT_EPOCH":12370,"BSTAR":2.9648e-5,"MEAN_MOTION_DOT":5.54e-6,"MEAN_MOTION_DDOT":0},{"OBJECT_NAME":"STARLINK-31018","OBJECT_ID":"2023-203T","EPOCH":"2026-03-02T09:41:15.572544","MEAN_MOTION":15.27569044,"ECCENTRICITY":0.0001304,"INCLINATION":43.0019,"RA_OF_ASC_NODE":108.5365,"ARG_OF_PERICENTER":267.5739,"MEAN_ANOMALY":92.4963,"EPHEMERIS_TYPE":0,"CLASSIFICATION_TYPE":"U","NORAD_CAT_ID":58635,"ELEMENT_SET_NO":999,"REV_AT_EPOCH":12367,"BSTAR":-5.314421e-6,"MEAN_MOTION_DOT":-4.08e-6,"MEAN_MOTION_DDOT":0},{"OBJECT_NAME":"STARLINK-31008","OBJECT_ID":"2023-203U","EPOCH":"2026-03-02T03:28:19.342848","MEAN_MOTION":15.27584898,"ECCENTRICITY":0.00015501,"INCLINATION":43.0022,"RA_OF_ASC_NODE":110.0344,"ARG_OF_PERICENTER":268.8997,"MEAN_ANOMALY":91.1677,"EPHEMERIS_TYPE":0,"CLASSIFICATION_TYPE":"U","NORAD_CAT_ID":58636,"ELEMENT_SET_NO":999,"REV_AT_EPOCH":12363,"BSTAR":2.8605632e-5,"MEAN_MOTION_DOT":5.25e-6,"MEAN_MOTION_DDOT":0},{"OBJECT_NAME":"STARLINK-31077","OBJECT_ID":"2023-203V","EPOCH":"2026-03-02T09:35:42.249120","MEAN_MOTION":15.27570564,"ECCENTRICITY":0.00013199,"INCLINATION":43.0029,"RA_OF_ASC_NODE":108.5087,"ARG_OF_PERICENTER":266.5951,"MEAN_ANOMALY":93.475,"EPHEMERIS_TYPE":0,"CLASSIFICATION_TYPE":"U","NORAD_CAT_ID":58637,"ELEMENT_SET_NO":999,"REV_AT_EPOCH":12367,"BSTAR":4.8303579e-5,"MEAN_MOTION_DOT":1.067e-5,"MEAN_MOTION_DDOT":0},{"OBJECT_NAME":"STARLINK-31078","OBJECT_ID":"2023-203W","EPOCH":"2026-03-02T09:30:09.470880","MEAN_MOTION":15.27567295,"ECCENTRICITY":0.00012143,"INCLINATION":43.0024,"RA_OF_ASC_NODE":108.4779,"ARG_OF_PERICENTER":215.2177,"MEAN_ANOMALY":144.8594,"EPHEMERIS_TYPE":0,"CLASSIFICATION_TYPE":"U","NORAD_CAT_ID":58638,"ELEMENT_SET_NO":999,"REV_AT_EPOCH":12244,"BSTAR":1.1193509e-5,"MEAN_MOTION_DOT":4.6e-7,"MEAN_MOTION_DDOT":0},{"OBJECT_NAME":"STARLINK-31070","OBJECT_ID":"2023-203X","EPOCH":"2026-03-02T12:58:48.679680","MEAN_MOTION":15.27577714,"ECCENTRICITY":0.0001318,"INCLINATION":43.0003,"RA_OF_ASC_NODE":107.8439,"ARG_OF_PERICENTER":288.3267,"MEAN_ANOMALY":71.7441,"EPHEMERIS_TYPE":0,"CLASSIFICATION_TYPE":"U","NORAD_CAT_ID":58639,"ELEMENT_SET_NO":999,"REV_AT_EPOCH":12246,"BSTAR":-5.3574e-5,"MEAN_MOTION_DOT":-1.736e-5,"MEAN_MOTION_DDOT":0},{"OBJECT_NAME":"STARLINK-31090","OBJECT_ID":"2023-203Y","EPOCH":"2026-03-02T12:26:40.807968","MEAN_MOTION":15.27586875,"ECCENTRICITY":8.48e-5,"INCLINATION":43.0005,"RA_OF_ASC_NODE":99.8947,"ARG_OF_PERICENTER":255.9872,"MEAN_ANOMALY":104.0885,"EPHEMERIS_TYPE":0,"CLASSIFICATION_TYPE":"U","NORAD_CAT_ID":58640,"ELEMENT_SET_NO":999,"REV_AT_EPOCH":12256,"BSTAR":0.00010344,"MEAN_MOTION_DOT":2.586e-5,"MEAN_MOTION_DDOT":0},{"OBJECT_NAME":"STARLINK-31113","OBJECT_ID":"2023-211B","EPOCH":"2026-03-02T14:22:10.085376","MEAN_MOTION":15.27572985,"ECCENTRICITY":0.0001781,"INCLINATION":43.001,"RA_OF_ASC_NODE":125.0201,"ARG_OF_PERICENTER":277.0686,"MEAN_ANOMALY":82.9963,"EPHEMERIS_TYPE":0,"CLASSIFICATION_TYPE":"U","NORAD_CAT_ID":58668,"ELEMENT_SET_NO":999,"REV_AT_EPOCH":12138,"BSTAR":-5.0929e-5,"MEAN_MOTION_DOT":-1.663e-5,"MEAN_MOTION_DDOT":0},{"OBJECT_NAME":"STARLINK-31128","OBJECT_ID":"2023-211C","EPOCH":"2026-03-02T11:37:55.157952","MEAN_MOTION":15.27560393,"ECCENTRICITY":0.00011691,"INCLINATION":43.0023,"RA_OF_ASC_NODE":125.8874,"ARG_OF_PERICENTER":273.9797,"MEAN_ANOMALY":86.0921,"EPHEMERIS_TYPE":0,"CLASSIFICATION_TYPE":"U","NORAD_CAT_ID":58669,"ELEMENT_SET_NO":999,"REV_AT_EPOCH":12136,"BSTAR":-3.9707162e-5,"MEAN_MOTION_DOT":-1.354e-5,"MEAN_MOTION_DDOT":0},{"OBJECT_NAME":"STARLINK-31083","OBJECT_ID":"2023-211D","EPOCH":"2026-03-02T14:16:35.822784","MEAN_MOTION":15.27589092,"ECCENTRICITY":7.31e-5,"INCLINATION":42.9989,"RA_OF_ASC_NODE":124.9953,"ARG_OF_PERICENTER":273.5556,"MEAN_ANOMALY":86.5212,"EPHEMERIS_TYPE":0,"CLASSIFICATION_TYPE":"U","NORAD_CAT_ID":58670,"ELEMENT_SET_NO":999,"REV_AT_EPOCH":12138,"BSTAR":6.9569e-5,"MEAN_MOTION_DOT":1.654e-5,"MEAN_MOTION_DDOT":0}]
